STARLINK-35120          
1 65659U 25211H   26062.66069962  .00002852  00000+0  20175-3 0  9996
2 65659  97.6031 108.1064 0001973 156.1354 203.9964 15.05656108 26136
STARLINK-35246          
1 65660U 25211J   26062.72164161  .00007609  00000+0  53091-3 0  9990
2 65660  97.6034 108.1793 0001788  90.6019 269.5413 15.05653548 26147
STARLINK-35220          
1 65661U 25211K   26062.71884831  .00002958  00000+0  20903-3 0  9991
2 65661  97.6039 108.1830 0001455  63.2836 296.8540 15.05667777 26142
STARLINK-35176          
1 65662U 25211L   26062.71608957  .00002222  00000+0  15816-3 0  9996
2 65662  97.6030 108.1867 0001233 120.4804 239.6544 15.05650499 26141
STARLINK-35190          
1 65663U 25211M   26062.71332307  .00001332  00000+0  96487-4 0  9995
2 65663  97.6033 108.1902 0001800  90.8988 269.2445 15.05653503 26146
STARLINK-35201          
1 65664U 25211N   26062.71055453  .00004898  00000+0  34336-3 0  9994
2 65664  97.6031 108.1943 0001719  93.1258 267.0165 15.05656330 26141
STARLINK-35115          
1 65665U 25211P   26062.70778429  .00007356  00000+0  51345-3 0  9990
2 65665  97.6028 108.1983 0001279 125.0424 235.0923 15.05655242 26141
STARLINK-35181          
1 65666U 25211Q   26062.63856670  .00007061  00000+0  49312-3 0  9992
2 65666  97.6026 108.1365 0001477 109.2436 250.8951 15.05646562 26131
STARLINK-35361          
1 65667U 25211R   26062.70226936  .00008206  00000+0  57220-3 0  9996
2 65667  97.6020 108.2056 0001317 100.5759 259.5617 15.05653023 26145
STARLINK-35351          
1 65668U 25211S   26062.69947922  .00004154  00000+0  29187-3 0  9999
2 65668  97.6016 108.2091 0001552  92.7929 267.3475 15.05656208 26149
STARLINK-35353          
1 65669U 25211T   26062.69668877  .00020904  00000+0  14466-2 0  9993
2 65669  97.6005 108.2123 0000895 116.1035 244.0284 15.05704494 26143
STARLINK-35359          
1 65670U 25211U   26062.69393756  .00005603  00000+0  39210-3 0  9990
2 65670  97.6012 108.2162 0000873 157.3148 202.8118 15.05659663 26149
STARLINK-35194          
1 65671U 25211V   26062.68842433  .00006409  00000+0  44806-3 0  9993
2 65671  97.6018 108.2236 0000579 114.3877 245.7410 15.05643233 26140
STARLINK-35198          
1 65672U 25211W   26062.69117263  .00005516  00000+0  38612-3 0  9997
2 65672  97.6017 108.2193 0001297 141.2472 218.8848 15.05657315 26142
STARLINK-35177          
1 65673U 25211X   26062.68286894  .00003280  00000+0  23141-3 0  9991
2 65673  97.6018 108.2317 0001793 115.7200 244.4212 15.05652216 26143
STARLINK-35254          
1 65674U 25211Y   26062.94592789  .00006472  00000+0  45218-3 0  9999
2 65674  97.6027 108.4984 0000869 129.9157 230.2146 15.05663111 26186
