[{"OBJECT_NAME":"STARLINK-35120","OBJECT_ID":"2025-211H","EPOCH":"2026-03-03T15:51:24.447168","MEAN_MOTION":15.05656108,"ECCENTRICITY":0.00019737,"INCLINATION":97.6031,"RA_OF_ASC_NODE":108.1064,"ARG_OF_PERICENTER":156.1354,"MEAN_ANOMALY":203.9964,"EPHEMERIS_TYPE":0,"CLASSIFICATION_TYPE":"U","NORAD_CAT_ID":65659,"ELEMENT_SET_NO":999,"REV_AT_EPOCH":2613,"BSTAR":0.00020175197,"MEAN_MOTION_DOT":2.852e-5,"MEAN_MOTION_DDOT":0},{"OBJECT_NAME":"STARLINK-35246","OBJECT_ID":"2025-211J","EPOCH":"2026-03-03T17:19:09.835104","MEAN_MOTION":15.05653548,"ECCENTRICITY":0.00017888,"INCLINATION":97.6034,"RA_OF_ASC_NODE":108.1793,"ARG_OF_PERICENTER":90.6019,"MEAN_ANOMALY":269.5413,"EPHEMERIS_TYPE":0,"CLASSIFICATION_TYPE":"U","NORAD_CAT_ID":65660,"ELEMENT_SET_NO":999,"REV_AT_EPOCH":2614,"BSTAR":0.00053091347,"MEAN_MOTION_DOT":7.609e-5,"MEAN_MOTION_DDOT":0},{"OBJECT_NAME":"STARLINK-35220","OBJECT_ID":"2025-211K","EPOCH":"2026-03-03T17:15:08.493984","MEAN_MOTION":15.05667777,"ECCENTRICITY":0.00014555,"INCLINATION":97.6039,"RA_OF_ASC_NODE":108.183,"ARG_OF_PERICENTER":63.2836,"MEAN_ANOMALY":296.854,"EPHEMERIS_TYPE":0,"CLASSIFICATION_TYPE":"U","NORAD_CAT_ID":65661,"ELEMENT_SET_NO":999,"REV_AT_EPOCH":2614,"BSTAR":0.00020902529,"MEAN_MOTION_DOT":2.958e-5,"MEAN_MOTION_DDOT":0},{"OBJECT_NAME":"STARLINK-35176","OBJECT_ID":"2025-211L","EPOCH":"2026-03-03T17:11:10.138848","MEAN_MOTION":15.05650499,"ECCENTRICITY":0.0001233,"INCLINATION":97.603,"RA_OF_ASC_NODE":108.1867,"ARG_OF_PERICENTER":120.4804,"MEAN_ANOMALY":239.6544,"EPHEMERIS_TYPE":0,"CLASSIFICATION_TYPE":"U","NORAD_CAT_ID":65662,"ELEMENT_SET_NO":999,"REV_AT_EPOCH":2614,"BSTAR":0.00015815785,"MEAN_MOTION_DOT":2.222e-5,"MEAN_MOTION_DDOT":0},{"OBJECT_NAME":"STARLINK-35190","OBJECT_ID":"2025-211M","EPOCH":"2026-03-03T17:07:11.113248","MEAN_MOTION":15.05653503,"ECCENTRICITY":0.00018004,"INCLINATION":97.6033,"RA_OF_ASC_NODE":108.1902,"ARG_OF_PERICENTER":90.8988,"MEAN_ANOMALY":269.2445,"EPHEMERIS_TYPE":0,"CLASSIFICATION_TYPE":"U","NORAD_CAT_ID":65663,"ELEMENT_SET_NO":999,"REV_AT_EPOCH":2614,"BSTAR":9.648746e-5,"MEAN_MOTION_DOT":1.332e-5,"MEAN_MOTION_DDOT":0},{"OBJECT_NAME":"STARLINK-35201","OBJECT_ID":"2025-211N","EPOCH":"2026-03-03T17:03:11.911392","MEAN_MOTION":15.0565633,"ECCENTRICITY":0.00017198,"INCLINATION":97.6031,"RA_OF_ASC_NODE":108.1943,"ARG_OF_PERICENTER":93.1258,"MEAN_ANOMALY":267.0165,"EPHEMERIS_TYPE":0,"CLASSIFICATION_TYPE":"U","NORAD_CAT_ID":65664,"ELEMENT_SET_NO":999,"REV_AT_EPOCH":2614,"BSTAR":0.0003433602,"MEAN_MOTION_DOT":4.898e-5,"MEAN_MOTION_DDOT":0},{"OBJECT_NAME":"STARLINK-35115","OBJECT_ID":"2025-211P","EPOCH":"2026-03-03T16:59:12.562656","MEAN_MOTION":15.05655242,"ECCENTRICITY":0.00012793,"INCLINATION":97.6028,"RA_OF_ASC_NODE":108.1983,"ARG_OF_PERICENTER":125.0424,"MEAN_ANOMALY":235.0923,"EPHEMERIS_TYPE":0,"CLASSIFICATION_TYPE":"U","NORAD_CAT_ID":65665,"ELEMENT_SET_NO":999,"REV_AT_EPOCH":2614,"BSTAR":0.00051344553,"MEAN_MOTION_DOT":7.356e-5,"MEAN_MOTION_DDOT":0},{"OBJECT_NAME":"STARLINK-35181","OBJECT_ID":"2025-211Q","EPOCH":"2026-03-03T15:19:32.162880","MEAN_MOTION":15.05646562,"ECCENTRICITY":0.0001477,"INCLINATION":97.6026,"RA_OF_ASC_NODE":108.1365,"ARG_OF_PERICENTER":109.2436,"MEAN_ANOMALY":250.8951,"EPHEMERIS_TYPE":0,"CLASSIFICATION_TYPE":"U","NORAD_CAT_ID":65666,"ELEMENT_SET_NO":999,"REV_AT_EPOCH":2613,"BSTAR":0.00049312,"MEAN_MOTION_DOT":7.061e-5,"MEAN_MOTION_DDOT":0},{"OBJECT_NAME":"STARLINK-35361","OBJECT_ID":"2025-211R","EPOCH":"2026-03-03T16:51:16.072704","MEAN_MOTION":15.05653023,"ECCENTRICITY":0.00013172,"INCLINATION":97.602,"RA_OF_ASC_NODE":108.2056,"ARG_OF_PERICENTER":100.5759,"MEAN_ANOMALY":259.5617,"EPHEMERIS_TYPE":0,"CLASSIFICATION_TYPE":"U","NORAD_CAT_ID":65667,"ELEMENT_SET_NO":999,"REV_AT_EPOCH":2614,"BSTAR":0.00057220254,"MEAN_MOTION_DOT":8.206e-5,"MEAN_MOTION_DDOT":0},{"OBJECT_NAME":"STARLINK-35351","OBJECT_ID":"2025-211S","EPOCH":"2026-03-03T16:47:15.004608","MEAN_MOTION":15.05656208,"ECCENTRICITY":0.00015522,"INCLINATION":97.6016,"RA_OF_ASC_NODE":108.2091,"ARG_OF_PERICENTER":92.7929,"MEAN_ANOMALY":267.3475,"EPHEMERIS_TYPE":0,"CLASSIFICATION_TYPE":"U","NORAD_CAT_ID":65668,"ELEMENT_SET_NO":999,"REV_AT_EPOCH":2614,"BSTAR":0.0002918676,"MEAN_MOTION_DOT":4.154e-5,"MEAN_MOTION_DDOT":0},{"OBJECT_NAME":"STARLINK-35353","OBJECT_ID":"2025-211T","EPOCH":"2026-03-03T16:43:13.909728","MEAN_MOTION":15.05704494,"ECCENTRICITY":8.951e-5,"INCLINATION":97.6005,"RA_OF_ASC_NODE":108.2123,"ARG_OF_PERICENTER":116.1035,"MEAN_ANOMALY":244.0284,"EPHEMERIS_TYPE":0,"CLASSIFICATION_TYPE":"U","NORAD_CAT_ID":65669,"ELEMENT_SET_NO":999,"REV_AT_EPOCH":2614,"BSTAR":0.0014466212,"MEAN_MOTION_DOT":0.00020904,"MEAN_MOTION_DDOT":0},{"OBJECT_NAME":"STARLINK-35359","OBJECT_ID":"2025-211U","EPOCH":"2026-03-03T16:39:16.205184","MEAN_MOTION":15.05659663,"ECCENTRICITY":8.732e-5,"INCLINATION":97.6012,"RA_OF_ASC_NODE":108.2162,"ARG_OF_PERICENTER":157.3148,"MEAN_ANOMALY":202.8118,"EPHEMERIS_TYPE":0,"CLASSIFICATION_TYPE":"U","NORAD_CAT_ID":65670,"ELEMENT_SET_NO":999,"REV_AT_EPOCH":2614,"BSTAR":0.00039210048,"MEAN_MOTION_DOT":5.603e-5,"MEAN_MOTION_DDOT":0},{"OBJECT_NAME":"STARLINK-35194","OBJECT_ID":"2025-211V","EPOCH":"2026-03-03T16:31:19.862112","MEAN_MOTION":15.05643233,"ECCENTRICITY":5.791e-5,"INCLINATION":97.6018,"RA_OF_ASC_NODE":108.2236,"ARG_OF_PERICENTER":114.3877,"MEAN_ANOMALY":245.741,"EPHEMERIS_TYPE":0,"CLASSIFICATION_TYPE":"U","NORAD_CAT_ID":65671,"ELEMENT_SET_NO":999,"REV_AT_EPOCH":2614,"BSTAR":0.00044806278,"MEAN_MOTION_DOT":6.409e-5,"MEAN_MOTION_DDOT":0},{"OBJECT_NAME":"STARLINK-35198","OBJECT_ID":"2025-211W","EPOCH":"2026-03-03T16:35:17.315232","MEAN_MOTION":15.05657315,"ECCENTRICITY":0.00012979,"INCLINATION":97.6017,"RA_OF_ASC_NODE":108.2193,"ARG_OF_PERICENTER":141.2472,"MEAN_ANOMALY":218.8848,"EPHEMERIS_TYPE":0,"CLASSIFICATION_TYPE":"U","NORAD_CAT_ID":65672,"ELEMENT_SET_NO":999,"REV_AT_EPOCH":2614,"BSTAR":0.000386123,"MEAN_MOTION_DOT":5.516e-5,"MEAN_MOTION_DDOT":0},{"OBJECT_NAME":"STARLINK-35177","OBJECT_ID":"2025-211X","EPOCH":"2026-03-03T16:23:19.876416","MEAN_MOTION":15.05652216,"ECCENTRICITY":0.00017933,"INCLINATION":97.6018,"RA_OF_ASC_NODE":108.2317,"ARG_OF_PERICENTER":115.72,"MEAN_ANOMALY":244.4212,"EPHEMERIS_TYPE":0,"CLASSIFICATION_TYPE":"U","NORAD_CAT_ID":65673,"ELEMENT_SET_NO":999,"REV_AT_EPOCH":2614,"BSTAR":0.00023141373,"MEAN_MOTION_DOT":3.28e-5,"MEAN_MOTION_DDOT":0},{"OBJECT_NAME":"STARLINK-35254","OBJECT_ID":"2025-211Y","EPOCH":"2026-03-03T22:42:08.169696","MEAN_MOTION":15.05663111,"ECCENTRICITY":8.694e-5,"INCLINATION":97.6027,"RA_OF_ASC_NODE":108.4984,"ARG_OF_PERICENTER":129.9157,"MEAN_ANOMALY":230.2146,"EPHEMERIS_TYPE":0,"CLASSIFICATION_TYPE":"U","NORAD_CAT_ID":65674,"ELEMENT_SET_NO":999,"REV_AT_EPOCH":2618,"BSTAR":0.00045218485,"MEAN_MOTION_DOT":6.472e-5,"MEAN_MOTION_DDOT":0}]
